[{"OBJECT_NAME":"STARLINK-2534","OBJECT_ID":"2021-036AM","EPOCH":"2026-03-09T07:49:04.034496","MEAN_MOTION":15.30215725,"ECCENTRICITY":0.00013222,"INCLINATION":53.1609,"RA_OF_ASC_NODE":90.3234,"ARG_OF_PERICENTER":82.9471,"MEAN_ANOMALY":277.168,"EPHEMERIS_TYPE":0,"CLASSIFICATION_TYPE":"U","NORAD_CAT_ID":48311,"ELEMENT_SET_NO":999,"REV_AT_EPOCH":26816,"BSTAR":0.00013616147,"MEAN_MOTION_DOT":3.677e-5,"MEAN_MOTION_DDOT":0},{"OBJECT_NAME":"SIMSAT 2","OBJECT_ID":"2000-026B","EPOCH":"2026-03-09T20:25:01.673184","MEAN_MOTION":15.29036787,"ECCENTRICITY":0.00037035,"INCLINATION":86.3514,"RA_OF_ASC_NODE":176.4271,"ARG_OF_PERICENTER":287.9875,"MEAN_ANOMALY":72.0969,"EPHEMERIS_TYPE":0,"CLASSIFICATION_TYPE":"U","NORAD_CAT_ID":26366,"ELEMENT_SET_NO":999,"REV_AT_EPOCH":42803,"BSTAR":0.00013465771,"MEAN_MOTION_DOT":3.833e-5,"MEAN_MOTION_DDOT":0}]
